{
  "type": "FeatureCollection",
  "features": [
    {
      "type": "Feature",
      "properties": {
        "norad_id": 66415,
        "name": "HULIANWANG DIGUI 13D",
        "group": "last-30-days",
        "lat": 29.139389119310177,
        "lon": -38.410226608560876,
        "alt_km": 805.3257872290333,
        "timestamp": "2025-12-05T04:52:14.141193+00:00",
        "meta_object_name": "HULIANWANG DIGUI 13D",
        "meta_object_id": "2025-258D",
        "meta_epoch": "2025-12-04T15:12:27.156960",
        "meta_mean_motion": 14.23498332,
        "meta_eccentricity": 0.00133657,
        "meta_inclination": 50.0044,
        "meta_ra_of_asc_node": 296.08,
        "meta_arg_of_pericenter": 334.6226,
        "meta_mean_anomaly": 25.403,
        "meta_ephemeris_type": 0,
        "meta_classification_type": "U",
        "meta_norad_cat_id": 66415,
        "meta_element_set_no": 999,
        "meta_rev_at_epoch": 350,
        "meta_bstar": 0.00015412936,
        "meta_mean_motion_dot": 1.94e-06,
        "meta_mean_motion_ddot": 0,
        "tle_line1": "1 66415U 25258D   25338.63364765  .00000194  00000+0  15413-3 0  9995",
        "tle_line2": "2 66415  50.0044 296.0800 0013365 334.6226  25.4030 14.23498332  3507"
      },
      "geometry": {
        "type": "Point",
        "coordinates": [
          -38.410226608560876,
          29.139389119310177
        ]
      }
    },
    {
      "type": "Feature",
      "properties": {
        "norad_id": 66416,
        "name": "HULIANWANG DIGUI 13E",
        "group": "last-30-days",
        "lat": 13.319119587058962,
        "lon": -54.81049449619044,
        "alt_km": 805.219384627243,
        "timestamp": "2025-12-05T04:52:14.141202+00:00",
        "meta_object_name": "HULIANWANG DIGUI 13E",
        "meta_object_id": "2025-258E",
        "meta_epoch": "2025-12-02T04:20:20.565312",
        "meta_mean_motion": 14.23468154,
        "meta_eccentricity": 0.0012751,
        "meta_inclination": 50.0045,
        "meta_ra_of_asc_node": 306.4445,
        "meta_arg_of_pericenter": 327.4493,
        "meta_mean_anomaly": 32.5632,
        "meta_ephemeris_type": 0,
        "meta_classification_type": "U",
        "meta_norad_cat_id": 66416,
        "meta_element_set_no": 999,
        "meta_rev_at_epoch": 315,
        "meta_bstar": 0.00010445686,
        "meta_mean_motion_dot": 8e-07,
        "meta_mean_motion_ddot": 0,
        "tle_line1": "1 66416U 25258E   25336.18079358  .00000080  00000+0  10446-3 0  9990",
        "tle_line2": "2 66416  50.0045 306.4445 0012751 327.4493  32.5632 14.23468154  3151"
      },
      "geometry": {
        "type": "Point",
        "coordinates": [
          -54.81049449619044,
          13.319119587058962
        ]
      }
    },
    {
      "type": "Feature",
      "properties": {
        "norad_id": 66417,
        "name": "HULIANWANG DIGUI 13F",
        "group": "last-30-days",
        "lat": 18.551454002296822,
        "lon": -49.94078413663981,
        "alt_km": 805.4895883548079,
        "timestamp": "2025-12-05T04:52:14.141211+00:00",
        "meta_object_name": "HULIANWANG DIGUI 13F",
        "meta_object_id": "2025-258F",
        "meta_epoch": "2025-12-04T15:16:37.404192",
        "meta_mean_motion": 14.23479086,
        "meta_eccentricity": 0.00124087,
        "meta_inclination": 49.9997,
        "meta_ra_of_asc_node": 296.0767,
        "meta_arg_of_pericenter": 334.514,
        "meta_mean_anomaly": 25.516,
        "meta_ephemeris_type": 0,
        "meta_classification_type": "U",
        "meta_norad_cat_id": 66417,
        "meta_element_set_no": 999,
        "meta_rev_at_epoch": 350,
        "meta_bstar": 0.00015703187,
        "meta_mean_motion_dot": 2e-06,
        "meta_mean_motion_ddot": 0,
        "tle_line1": "1 66417U 25258F   25338.63654403  .00000200  00000+0  15703-3 0  9998",
        "tle_line2": "2 66417  49.9997 296.0767 0012408 334.5140  25.5160 14.23479086  3506"
      },
      "geometry": {
        "type": "Point",
        "coordinates": [
          -49.94078413663981,
          18.551454002296822
        ]
      }
    },
    {
      "type": "Feature",
      "properties": {
        "norad_id": 66418,
        "name": "HULIANWANG DIGUI 13G",
        "group": "last-30-days",
        "lat": 33.534413856222834,
        "lon": -32.53632244786413,
        "alt_km": 806.6071136170167,
        "timestamp": "2025-12-05T04:52:14.141221+00:00",
        "meta_object_name": "HULIANWANG DIGUI 13G",
        "meta_object_id": "2025-258G",
        "meta_epoch": "2025-12-04T15:10:34.276224",
        "meta_mean_motion": 14.23490562,
        "meta_eccentricity": 0.00124318,
        "meta_inclination": 50.0018,
        "meta_ra_of_asc_node": 296.0558,
        "meta_arg_of_pericenter": 329.9358,
        "meta_mean_anomaly": 30.0841,
        "meta_ephemeris_type": 0,
        "meta_classification_type": "U",
        "meta_norad_cat_id": 66418,
        "meta_element_set_no": 999,
        "meta_rev_at_epoch": 350,
        "meta_bstar": 0.00015083927,
        "meta_mean_motion_dot": 1.86e-06,
        "meta_mean_motion_ddot": 0,
        "tle_line1": "1 66418U 25258G   25338.63234116  .00000186  00000+0  15084-3 0  9999",
        "tle_line2": "2 66418  50.0018 296.0558 0012431 329.9358  30.0841 14.23490562  3506"
      },
      "geometry": {
        "type": "Point",
        "coordinates": [
          -32.53632244786413,
          33.534413856222834
        ]
      }
    },
    {
      "type": "Feature",
      "properties": {
        "norad_id": 66419,
        "name": "HULIANWANG DIGUI 13H",
        "group": "last-30-days",
        "lat": 38.214745071714695,
        "lon": -24.981526519702705,
        "alt_km": 806.8158134611731,
        "timestamp": "2025-12-05T04:52:14.141230+00:00",
        "meta_object_name": "HULIANWANG DIGUI 13H",
        "meta_object_id": "2025-258H",
        "meta_epoch": "2025-12-04T15:08:25.166976",
        "meta_mean_motion": 14.23507653,
        "meta_eccentricity": 0.0012081,
        "meta_inclination": 50.0006,
        "meta_ra_of_asc_node": 296.0454,
        "meta_arg_of_pericenter": 331.3469,
        "meta_mean_anomaly": 28.6779,
        "meta_ephemeris_type": 0,
        "meta_classification_type": "U",
        "meta_norad_cat_id": 66419,
        "meta_element_set_no": 999,
        "meta_rev_at_epoch": 350,
        "meta_bstar": 0.00014559855,
        "meta_mean_motion_dot": 1.74e-06,
        "meta_mean_motion_ddot": 0,
        "tle_line1": "1 66419U 25258H   25338.63084684  .00000174  00000+0  14560-3 0  9998",
        "tle_line2": "2 66419  50.0006 296.0454 0012081 331.3469  28.6779 14.23507653  3503"
      },
      "geometry": {
        "type": "Point",
        "coordinates": [
          -24.981526519702705,
          38.214745071714695
        ]
      }
    },
    {
      "type": "Feature",
      "properties": {
        "norad_id": 66420,
        "name": "HULIANWANG DIGUI 13J",
        "group": "last-30-days",
        "lat": 41.35479073615029,
        "lon": -18.716812946380223,
        "alt_km": 806.3321591826716,
        "timestamp": "2025-12-05T04:52:14.141242+00:00",
        "meta_object_name": "HULIANWANG DIGUI 13J",
        "meta_object_id": "2025-258J",
        "meta_epoch": "2025-12-04T15:06:47.522880",
        "meta_mean_motion": 14.23475282,
        "meta_eccentricity": 0.00113849,
        "meta_inclination": 50.0023,
        "meta_ra_of_asc_node": 296.0493,
        "meta_arg_of_pericenter": 338.4785,
        "meta_mean_anomaly": 21.5648,
        "meta_ephemeris_type": 0,
        "meta_classification_type": "U",
        "meta_norad_cat_id": 66420,
        "meta_element_set_no": 999,
        "meta_rev_at_epoch": 349,
        "meta_bstar": 0.00014104025,
        "meta_mean_motion_dot": 1.63e-06,
        "meta_mean_motion_ddot": 0,
        "tle_line1": "1 66420U 25258J   25338.62971670  .00000163  00000+0  14104-3 0  9991",
        "tle_line2": "2 66420  50.0023 296.0493 0011384 338.4785  21.5648 14.23475282  3498"
      },
      "geometry": {
        "type": "Point",
        "coordinates": [
          -18.716812946380223,
          41.35479073615029
        ]
      }
    },
    {
      "type": "Feature",
      "properties": {
        "norad_id": 66421,
        "name": "CZ-12 R/B",
        "group": "last-30-days",
        "lat": -0.6757038676821406,
        "lon": 111.21691017576502,
        "alt_km": 716.8644755427795,
        "timestamp": "2025-12-05T04:52:14.141251+00:00",
        "meta_object_name": "CZ-12 R/B",
        "meta_object_id": "2025-258K",
        "meta_epoch": "2025-12-04T14:43:43.596192",
        "meta_mean_motion": 14.42317153,
        "meta_eccentricity": 0.00646003,
        "meta_inclination": 49.9966,
        "meta_ra_of_asc_node": 293.2072,
        "meta_arg_of_pericenter": 220.1931,
        "meta_mean_anomaly": 139.4203,
        "meta_ephemeris_type": 0,
        "meta_classification_type": "U",
        "meta_norad_cat_id": 66421,
        "meta_element_set_no": 999,
        "meta_rev_at_epoch": 354,
        "meta_bstar": 4.0819589e-05,
        "meta_mean_motion_dot": -3.2e-07,
        "meta_mean_motion_ddot": 0,
        "tle_line1": "1 66421U 25258K   25338.61369903 -.00000032  00000+0  40820-4 0  9992",
        "tle_line2": "2 66421  49.9966 293.2072 0064600 220.1931 139.4203 14.42317153  3548"
      },
      "geometry": {
        "type": "Point",
        "coordinates": [
          111.21691017576502,
          -0.6757038676821406
        ]
      }
    }
  ]
}